CCSDS_OMM_VERS = 2.0
CREATION_DATE  = 
ORIGINATOR     = 

OBJECT_NAME    = STARLINK-37119
OBJECT_ID      = 2026-053D
CENTER_NAME    = EARTH
REF_FRAME      = TEME
TIME_SYSTEM    = UTC
MEAN_ELEMENT_THEORY = SGP/SGP4

EPOCH          = 2026-03-26T12:00:01.999296
MEAN_MOTION    = 15.85637756
ECCENTRICITY   = .0001268
INCLINATION    = 97.2800
RA_OF_ASC_NODE = 320.5504
ARG_OF_PERICENTER = 94.9335
MEAN_ANOMALY   = 220.8198

EPHEMERIS_TYPE = 0
CLASSIFICATION_TYPE = U
NORAD_CAT_ID   = 68210
ELEMENT_SET_NO = 999
REV_AT_EPOCH   = 271
BSTAR          = -.92646E-2
MEAN_MOTION_DOT = -.1943179E-1
MEAN_MOTION_DDOT = 0

CCSDS_OMM_VERS = 2.0
CREATION_DATE  = 
ORIGINATOR     = 

OBJECT_NAME    = STARLINK-37120
OBJECT_ID      = 2026-053E
CENTER_NAME    = EARTH
REF_FRAME      = TEME
TIME_SYSTEM    = UTC
MEAN_ELEMENT_THEORY = SGP/SGP4

EPOCH          = 2026-03-26T12:00:01.999296
MEAN_MOTION    = 15.85793036
ECCENTRICITY   = .0001569
INCLINATION    = 97.2795
RA_OF_ASC_NODE = 320.5518
ARG_OF_PERICENTER = 87.8806
MEAN_ANOMALY   = 231.5493

EPHEMERIS_TYPE = 0
CLASSIFICATION_TYPE = U
NORAD_CAT_ID   = 68211
ELEMENT_SET_NO = 999
REV_AT_EPOCH   = 269
BSTAR          = -.92609E-2
MEAN_MOTION_DOT = -.1955655E-1
MEAN_MOTION_DDOT = 0

CCSDS_OMM_VERS = 2.0
CREATION_DATE  = 
ORIGINATOR     = 

OBJECT_NAME    = STARLINK-37117
OBJECT_ID      = 2026-053F
CENTER_NAME    = EARTH
REF_FRAME      = TEME
TIME_SYSTEM    = UTC
MEAN_ELEMENT_THEORY = SGP/SGP4

EPOCH          = 2026-03-26T12:00:01.999296
MEAN_MOTION    = 15.85950772
ECCENTRICITY   = .000166
INCLINATION    = 97.2799
RA_OF_ASC_NODE = 320.5539
ARG_OF_PERICENTER = 79.3709
MEAN_ANOMALY   = 243.7004

EPHEMERIS_TYPE = 0
CLASSIFICATION_TYPE = U
NORAD_CAT_ID   = 68212
ELEMENT_SET_NO = 999
REV_AT_EPOCH   = 271
BSTAR          = -.92422E-2
MEAN_MOTION_DOT = -.1965428E-1
MEAN_MOTION_DDOT = 0

CCSDS_OMM_VERS = 2.0
CREATION_DATE  = 
ORIGINATOR     = 

OBJECT_NAME    = STARLINK-37116
OBJECT_ID      = 2026-053G
CENTER_NAME    = EARTH
REF_FRAME      = TEME
TIME_SYSTEM    = UTC
MEAN_ELEMENT_THEORY = SGP/SGP4

EPOCH          = 2026-03-26T12:00:01.999296
MEAN_MOTION    = 15.86134465
ECCENTRICITY   = .0001524
INCLINATION    = 97.2793
RA_OF_ASC_NODE = 320.5548
ARG_OF_PERICENTER = 95.7576
MEAN_ANOMALY   = 230.7423

EPHEMERIS_TYPE = 0
CLASSIFICATION_TYPE = U
NORAD_CAT_ID   = 68213
ELEMENT_SET_NO = 999
REV_AT_EPOCH   = 271
BSTAR          = -.91116E-2
MEAN_MOTION_DOT = -.1956312E-1
MEAN_MOTION_DDOT = 0

CCSDS_OMM_VERS = 2.0
CREATION_DATE  = 
ORIGINATOR     = 

OBJECT_NAME    = STARLINK-35854
OBJECT_ID      = 2026-053H
CENTER_NAME    = EARTH
REF_FRAME      = TEME
TIME_SYSTEM    = UTC
MEAN_ELEMENT_THEORY = SGP/SGP4

EPOCH          = 2026-03-26T12:00:01.999296
MEAN_MOTION    = 15.86276964
ECCENTRICITY   = .0001442
INCLINATION    = 97.2789
RA_OF_ASC_NODE = 320.5564
ARG_OF_PERICENTER = 85.1134
MEAN_ANOMALY   = 245.0134

EPHEMERIS_TYPE = 0
CLASSIFICATION_TYPE = U
NORAD_CAT_ID   = 68214
ELEMENT_SET_NO = 999
REV_AT_EPOCH   = 247
BSTAR          = -.90307E-2
MEAN_MOTION_DOT = -.1952914E-1
MEAN_MOTION_DDOT = 0

CCSDS_OMM_VERS = 2.0
CREATION_DATE  = 
ORIGINATOR     = 

OBJECT_NAME    = STARLINK-36272
OBJECT_ID      = 2026-053J
CENTER_NAME    = EARTH
REF_FRAME      = TEME
TIME_SYSTEM    = UTC
MEAN_ELEMENT_THEORY = SGP/SGP4

EPOCH          = 2026-03-26T12:00:01.999296
MEAN_MOTION    = 15.86453642
ECCENTRICITY   = .0001361
INCLINATION    = 97.2787
RA_OF_ASC_NODE = 320.5577
ARG_OF_PERICENTER = 81.0858
MEAN_ANOMALY   = 252.4441

EPHEMERIS_TYPE = 0
CLASSIFICATION_TYPE = U
NORAD_CAT_ID   = 68215
ELEMENT_SET_NO = 999
REV_AT_EPOCH   = 260
BSTAR          = -.88939E-2
MEAN_MOTION_DOT = -.194163E-1
MEAN_MOTION_DDOT = 0

CCSDS_OMM_VERS = 2.0
CREATION_DATE  = 
ORIGINATOR     = 

OBJECT_NAME    = STARLINK-37014
OBJECT_ID      = 2026-053K
CENTER_NAME    = EARTH
REF_FRAME      = TEME
TIME_SYSTEM    = UTC
MEAN_ELEMENT_THEORY = SGP/SGP4

EPOCH          = 2026-03-26T12:00:01.999296
MEAN_MOTION    = 15.86599037
ECCENTRICITY   = .0001499
INCLINATION    = 97.2786
RA_OF_ASC_NODE = 320.5593
ARG_OF_PERICENTER = 92.5501
MEAN_ANOMALY   = 244.6089

EPHEMERIS_TYPE = 0
CLASSIFICATION_TYPE = U
NORAD_CAT_ID   = 68216
ELEMENT_SET_NO = 999
REV_AT_EPOCH   = 271
BSTAR          = -.88914E-2
MEAN_MOTION_DOT = -.1953415E-1
MEAN_MOTION_DDOT = 0

CCSDS_OMM_VERS = 2.0
CREATION_DATE  = 
ORIGINATOR     = 

OBJECT_NAME    = STARLINK-37011
OBJECT_ID      = 2026-053L
CENTER_NAME    = EARTH
REF_FRAME      = TEME
TIME_SYSTEM    = UTC
MEAN_ELEMENT_THEORY = SGP/SGP4

EPOCH          = 2026-03-26T12:00:01.999296
MEAN_MOTION    = 15.86768806
ECCENTRICITY   = .0001457
INCLINATION    = 97.2786
RA_OF_ASC_NODE = 320.5608
ARG_OF_PERICENTER = 92.2464
MEAN_ANOMALY   = 248.2764

EPHEMERIS_TYPE = 0
CLASSIFICATION_TYPE = U
NORAD_CAT_ID   = 68217
ELEMENT_SET_NO = 999
REV_AT_EPOCH   = 271
BSTAR          = -.87309E-2
MEAN_MOTION_DOT = -.1892928E-1
MEAN_MOTION_DDOT = 0

CCSDS_OMM_VERS = 2.0
CREATION_DATE  = 
ORIGINATOR     = 

OBJECT_NAME    = STARLINK-37108
OBJECT_ID      = 2026-053M
CENTER_NAME    = EARTH
REF_FRAME      = TEME
TIME_SYSTEM    = UTC
MEAN_ELEMENT_THEORY = SGP/SGP4

EPOCH          = 2026-03-26T12:00:01.999296
MEAN_MOTION    = 15.86974891
ECCENTRICITY   = .0001412
INCLINATION    = 97.2786
RA_OF_ASC_NODE = 320.5620
ARG_OF_PERICENTER = 100.3149
MEAN_ANOMALY   = 243.3140

EPHEMERIS_TYPE = 0
CLASSIFICATION_TYPE = U
NORAD_CAT_ID   = 68218
ELEMENT_SET_NO = 999
REV_AT_EPOCH   = 271
BSTAR          = -.85616E-2
MEAN_MOTION_DOT = -.1877896E-1
MEAN_MOTION_DDOT = 0

CCSDS_OMM_VERS = 2.0
CREATION_DATE  = 
ORIGINATOR     = 

OBJECT_NAME    = STARLINK-37106
OBJECT_ID      = 2026-053N
CENTER_NAME    = EARTH
REF_FRAME      = TEME
TIME_SYSTEM    = UTC
MEAN_ELEMENT_THEORY = SGP/SGP4

EPOCH          = 2026-03-26T12:00:01.999296
MEAN_MOTION    = 15.87151209
ECCENTRICITY   = .0001427
INCLINATION    = 97.2784
RA_OF_ASC_NODE = 320.5635
ARG_OF_PERICENTER = 80.7837
MEAN_ANOMALY   = 266.1680

EPHEMERIS_TYPE = 0
CLASSIFICATION_TYPE = U
NORAD_CAT_ID   = 68219
ELEMENT_SET_NO = 999
REV_AT_EPOCH   = 271
BSTAR          = -.84908E-2
MEAN_MOTION_DOT = -.1878594E-1
MEAN_MOTION_DDOT = 0

CCSDS_OMM_VERS = 2.0
CREATION_DATE  = 
ORIGINATOR     = 

OBJECT_NAME    = STARLINK-37030
OBJECT_ID      = 2026-053P
CENTER_NAME    = EARTH
REF_FRAME      = TEME
TIME_SYSTEM    = UTC
MEAN_ELEMENT_THEORY = SGP/SGP4

EPOCH          = 2026-03-26T12:00:01.999296
MEAN_MOTION    = 15.87448670
ECCENTRICITY   = .0001411
INCLINATION    = 97.2776
RA_OF_ASC_NODE = 320.5661
ARG_OF_PERICENTER = 91.0908
MEAN_ANOMALY   = 262.7721

EPHEMERIS_TYPE = 0
CLASSIFICATION_TYPE = U
NORAD_CAT_ID   = 68220
ELEMENT_SET_NO = 999
REV_AT_EPOCH   = 271
BSTAR          = -.834E-2
MEAN_MOTION_DOT = -.1873571E-1
MEAN_MOTION_DDOT = 0

CCSDS_OMM_VERS = 2.0
CREATION_DATE  = 
ORIGINATOR     = 

OBJECT_NAME    = STARLINK-37012
OBJECT_ID      = 2026-053Q
CENTER_NAME    = EARTH
REF_FRAME      = TEME
TIME_SYSTEM    = UTC
MEAN_ELEMENT_THEORY = SGP/SGP4

EPOCH          = 2026-03-26T12:00:01.999296
MEAN_MOTION    = 15.87302186
ECCENTRICITY   = .0001492
INCLINATION    = 97.2777
RA_OF_ASC_NODE = 320.5647
ARG_OF_PERICENTER = 93.4872
MEAN_ANOMALY   = 256.8944

EPHEMERIS_TYPE = 0
CLASSIFICATION_TYPE = U
NORAD_CAT_ID   = 68221
ELEMENT_SET_NO = 999
REV_AT_EPOCH   = 271
BSTAR          = -.83866E-2
MEAN_MOTION_DOT = -.1870966E-1
MEAN_MOTION_DDOT = 0

