STARLINK-37119          
1 68210U 26053D   26085.50002314 -.01943179  00000+0 -92646-2 0  9993
2 68210  97.2800 320.5504 0001268  94.9335 220.8198 15.85637756  2717
STARLINK-37120          
1 68211U 26053E   26085.50002314 -.01955655  00000+0 -92609-2 0  9995
2 68211  97.2795 320.5518 0001569  87.8806 231.5493 15.85793036  2692
STARLINK-37117          
1 68212U 26053F   26085.50002314 -.01965428  00000+0 -92422-2 0  9998
2 68212  97.2799 320.5539 0001660  79.3709 243.7004 15.85950772  2718
STARLINK-37116          
1 68213U 26053G   26085.50002314 -.01956312  00000+0 -91116-2 0  9990
2 68213  97.2793 320.5548 0001524  95.7576 230.7423 15.86134465  2711
STARLINK-35854          
1 68214U 26053H   26085.50002314 -.01952914  00000+0 -90307-2 0  9996
2 68214  97.2789 320.5564 0001442  85.1134 245.0134 15.86276964  2479
STARLINK-36272          
1 68215U 26053J   26085.50002314 -.01941630  00000+0 -88939-2 0  9998
2 68215  97.2787 320.5577 0001361  81.0858 252.4441 15.86453642  2608
STARLINK-37014          
1 68216U 26053K   26085.50002314 -.01953415  00000+0 -88914-2 0  9996
2 68216  97.2786 320.5593 0001499  92.5501 244.6089 15.86599037  2712
STARLINK-37011          
1 68217U 26053L   26085.50002314 -.01892928  00000+0 -87309-2 0  9995
2 68217  97.2786 320.5608 0001457  92.2464 248.2764 15.86768806  2711
STARLINK-37108          
1 68218U 26053M   26085.50002314 -.01877896  00000+0 -85616-2 0  9992
2 68218  97.2786 320.5620 0001412 100.3149 243.3140 15.86974891  2715
STARLINK-37106          
1 68219U 26053N   26085.50002314 -.01878594  00000+0 -84908-2 0  9992
2 68219  97.2784 320.5635 0001427  80.7837 266.1680 15.87151209  2714
STARLINK-37030          
1 68220U 26053P   26085.50002314 -.01873571  00000+0 -83400-2 0  9990
2 68220  97.2776 320.5661 0001411  91.0908 262.7721 15.87448670  2712
STARLINK-37012          
1 68221U 26053Q   26085.50002314 -.01870966  00000+0 -83866-2 0  9992
2 68221  97.2777 320.5647 0001492  93.4872 256.8944 15.87302186  2715
